METEOSAT-10 (MSG-3)     
1 38552U 12035B   24180.89145244 -.00000005  00000+0  00000+0 0  9990
2 38552   2.9911  61.0887 0000441 317.1832 220.1755  1.00268392 43652
METOP-B                 
1 38771U 12049A   24181.49134192  .00000306  00000+0  15978-3 0  9992
2 38771  98.6272 238.4382 0001501  86.9289 273.2060 14.21445208611291
INSAT-3D                
1 39216U 13038B   24177.61602647 -.00000150  00000+0  00000+0 0  9994
2 39216   0.0603 100.9311 0000654 138.8040 338.3556  1.00271304 39841
FENGYUN 3C              
1 39260U 13052A   24181.53078246  .00000246  00000+0  14475-3 0  9997
2 39260  98.4281 180.4827 0009887 294.5243  65.4902 14.16223212557079
METEOR-M 2              
1 40069U 14037A   24181.56418236  .00000340  00000+0  17602-3 0  9990
2 40069  98.4363 175.2489 0005109 334.5593  25.5332 14.20986698517384
HIMAWARI-8              
1 40267U 14060A   24180.45826448 -.00000272  00000+0  00000+0 0  9996
2 40267   0.0442 203.0764 0001261 281.2860  98.2934  1.00273370 35556
FENGYUN 2G              
1 40367U 14090A   24180.90493125 -.00000299  00000+0  00000+0 0  9991
2 40367   3.8200  81.4145 0003285 113.2106 148.2040  1.00264569 34830
METEOSAT-11 (MSG-4)     
1 40732U 15034A   24180.89336694  .00000065  00000+0  00000+0 0  9991
2 40732   1.4135  69.3750 0000969 169.1854   9.8668  1.00266428    28
ELEKTRO-L 2             
1 41105U 15074A   24181.03169066 -.00000115  00000+0  00000+0 0  9991
2 41105   4.8715  79.3374 0000993 143.4248  51.7668  1.00270254 31310
INSAT-3DR               
1 41752U 16054A   24181.33543692 -.00000073  00000+0  00000+0 0  9995
2 41752   0.1329  93.3084 0010346 173.9896 205.3543  1.00271390 28601
HIMAWARI-9              
1 41836U 16064A   24180.90968493 -.00000272  00000+0  00000+0 0  9992
2 41836   0.0392 153.5782 0000878 325.0627 267.0863  1.00270739 28008
GOES 16                 
1 41866U 16071A   24180.80482927 -.00000244  00000+0  00000+0 0  9994
2 41866   0.0745 250.4994 0000281 212.7612  28.6514  1.00270540 27901
FENGYUN 4A              
1 41882U 16077A   24181.48125782 -.00000197  00000+0  00000+0 0  9993
2 41882   0.4890  85.8777 0008106 344.7813 107.4895  1.00267335 27788
CYGFM05                 
1 41884U 16078A   24181.17514199  .00013683  00000+0  49890-3 0  9993
2 41884  34.9554 225.1727 0012123 302.1148  57.8391 15.27268191418010
CYGFM04                 
1 41885U 16078B   24180.50232530  .00012802  00000+0  45472-3 0  9990
2 41885  34.9400 213.3940 0009470 318.1937  41.8055 15.28162115418066
CYGFM02                 
1 41886U 16078C   24181.50442121  .00013391  00000+0  47013-3 0  9998
2 41886  34.9507 209.2659 0012045 315.7079  44.2672 15.28509230418210
CYGFM01                 
1 41887U 16078D   24180.43990615  .00010811  00000+0  39717-3 0  9992
2 41887  34.9469 233.6868 0011893 284.1176  75.8217 15.27058531417731
CYGFM08                 
1 41888U 16078E   24181.16928345  .00013659  00000+0  48703-3 0  9993
2 41888  34.9480 217.1331 0012707 314.9409  45.0275 15.27992539418057
CYGFM07                 
1 41890U 16078G   24181.14401807  .00013363  00000+0  47252-3 0  9993
2 41890  34.9476 208.7106 0009237 321.5326  38.4730 15.28305310418167
CYGFM03                 
1 41891U 16078H   24181.17965582  .00013574  00000+0  48103-3 0  9992
2 41891  34.9493 209.6859 0010132 306.5784  53.3999 15.28221793418153
FENGYUN 3D              
1 43010U 17072A   24181.50168933  .00000245  00000+0  13818-3 0  9990
2 43010  98.9111 136.2289 0000930 353.3029   6.8134 14.19363313343160
NOAA 20 (JPSS-1)        
1 43013U 17073A   24181.53552061  .00000188  00000+0  11002-3 0  9995
2 43013  98.7065 119.2511 0001467 139.1099 221.0187 14.19537332342657
GOES 17                 
1 43226U 18022A   24180.90466065 -.00000087  00000+0  00000+0 0  9995
2 43226   0.0433 183.1255 0000951 317.4718 357.8410  1.00270825 23233
FENGYUN 2H              
1 43491U 18050A   24180.90718889 -.00000124  00000+0  00000+0 0  9996
2 43491   1.1728  87.2254 0001704  45.6815 190.2977  1.00267718 22237
METOP-C                 
1 43689U 18087A   24181.45936145  .00000303  00000+0  15836-3 0  9998
2 43689  98.7228 240.5924 0002964  70.0161 290.1336 14.21481450292861
GEO-KOMPSAT-2A          
1 43823U 18100A   24181.56725192 -.00000340  00000+0  00000+0 0  9999
2 43823   0.0441 174.4645 0002419 278.3420 157.7812  1.00272769 20461
METEOR-M2 2             
1 44387U 19038A   24181.51790864  .00000121  00000+0  72441-4 0  9998
2 44387  98.8271 150.7904 0000439 353.7119   6.4054 14.23897404259146
ARKTIKA-M 1             
1 47719U 21016A   24179.71968038  .00000184  00000+0  00000+0 0  9994
2 47719  63.1391 150.5690 6945047 268.6784  17.9137  2.00607946 24351
FENGYUN 3E              
1 49008U 21062A   24181.53944035  .00000086  00000+0  61437-4 0  9999
2 49008  98.7317 182.6524 0001948  35.0272 325.1032 14.19761261154742
GOES 18                 
1 51850U 22021A   24181.45380512  .00000100  00000+0  00000+0 0  9999
2 51850   0.0432 177.8641 0000422 324.2363 162.2736  1.00272053  8606
NOAA 21 (JPSS-2)        
1 54234U 22150A   24180.86630944  .00000203  00000+0  11716-3 0  9996
2 54234  98.7518 118.6233 0001930  95.4742 264.6654 14.19531446 84638
METEOSAT-12 (MTG-I1)    
1 54743U 22170C   24181.18625755 -.00000003  00000+0  00000+0 0  9992
2 54743   0.5307  43.6706 0001586  52.5161 248.2505  1.00275051  5772
TIANMU-1 03             
1 55973U 23039A   24181.47827534  .00012320  00000+0  52988-3 0  9994
2 55973  97.4698 332.0263 0006196 129.1997 230.9790 15.22768349 70726
TIANMU-1 04             
1 55974U 23039B   24181.52721131  .00012037  00000+0  51610-3 0  9993
2 55974  97.4619 331.6235 0007312 127.1128 233.0778 15.22871129 70720
TIANMU-1 05             
1 55975U 23039C   24181.31393453  .00000270  00000+0  14591-4 0  9997
2 55975  97.4667 331.7466 0005391 144.5498 215.6098 15.22757879 70680
TIANMU-1 06             
1 55976U 23039D   24181.16566229  .00005818  00000+0  25058-3 0  9996
2 55976  97.4685 331.7194 0006055 144.7578 215.4060 15.22964878 70662
METEOR-M2 3             
1 57166U 23091A   24181.48284230  .00000068  00000+0  49001-4 0  9998
2 57166  98.7120 236.0460 0005166  94.5259 265.6510 14.23901512 52377
TIANMU-1 07             
1 57399U 23101A   24181.49444217  .00009408  00000+0  47461-3 0  9996
2 57399  97.3625 238.3025 0006400 135.0781 225.0972 15.17319399 52298
TIANMU-1 08             
1 57400U 23101B   24181.46372472  .00008708  00000+0  43931-3 0  9999
2 57400  97.3611 238.1442 0008524 142.5509 217.6321 15.17329248 52285
TIANMU-1 09             
1 57401U 23101C   24181.51271782  .00009931  00000+0  50058-3 0  9995
2 57401  97.3566 238.0268 0008962 139.3714 220.8190 15.17314750 52291
TIANMU-1 10             
1 57402U 23101D   24181.47905663  .00009195  00000+0  46381-3 0  9999
2 57402  97.3648 238.2819 0011238 139.2049 221.0028 15.17295465 52280
FENGYUN 3F              
1 57490U 23111A   24181.49319450  .00000201  00000+0  11577-3 0  9990
2 57490  98.7693 250.5111 0001889  78.5556 281.5833 14.19831186 47010
ARKTIKA-M 2             
1 58584U 23198A   24179.45202540  .00000143  00000+0  00000+0 0  9994
2 58584  63.2508 234.3936 6980212 269.8501  17.2465  2.00613333  3880
TIANMU-1 11             
1 58645U 23205A   24181.53482772  .00008045  00000+0  43036-3 0  9999
2 58645  97.4030 206.3059 0011374  11.7538 348.3958 15.15259909 28386
TIANMU-1 12             
1 58646U 23205B   24181.55005139  .00008935  00000+0  47720-3 0  9992
2 58646  97.4013 206.2503 0009637   5.0559 355.0769 15.15300721 28372
TIANMU-1 13             
1 58647U 23205C   24181.51680751  .00007501  00000+0  40222-3 0  9996
2 58647  97.4043 206.2165 0008918 349.0259  11.0777 15.15221391 28361
TIANMU-1 14             
1 58648U 23205D   24181.56681797  .00008248  00000+0  44167-3 0  9994
2 58648  97.3967 206.1178 0009763 351.1226   8.9832 15.15229681 28374
TIANMU-1 19             
1 58660U 23208A   24181.57405318  .00009615  00000+0  51402-3 0  9994
2 58660  97.4121 293.6563 0008065 329.5551  30.5212 15.15259318 28041
TIANMU-1 20             
1 58661U 23208B   24181.57111729  .00009341  00000+0  48830-3 0  9992
2 58661  97.4048 293.6303 0009076 340.1599  19.9280 15.16052402 28059
TIANMU-1 21             
1 58662U 23208C   24181.55680435  .00009684  00000+0  49337-3 0  9999
2 58662  97.4084 293.8976 0008715 340.0526  20.0366 15.16955231 28067
TIANMU-1 22             
1 58663U 23208D   24181.59069682  .00009695  00000+0  51887-3 0  9994
2 58663  97.4104 293.7458 0004783   0.0625   0.0607 15.15234845 28054
TIANMU-1 15             
1 58700U 24004A   24181.49924933  .00008557  00000+0  45846-3 0  9993
2 58700  97.4631   2.3764 0010172  19.3010 340.8606 15.15201257 26632
TIANMU-1 16             
1 58701U 24004B   24181.48186297  .00008119  00000+0  43475-3 0  9996
2 58701  97.4556   2.2284 0010310  24.8721 335.3007 15.15235708 26631
TIANMU-1 17             
1 58702U 24004C   24181.53301516  .00008469  00000+0  45388-3 0  9999
2 58702  97.4598   2.4144 0008011  21.1908 338.9655 15.15209569 26631
TIANMU-1 18             
1 58703U 24004D   24181.51602306  .00008772  00000+0  46969-3 0  9992
2 58703  97.4616   2.4724 0007014  12.9560 347.1851 15.15239094 26637
INSAT-3DS               
1 58990U 24033A   24171.63670715 -.00000142  00000+0  00000+0 0  9999
2 58990   0.0159 349.8168 0010402 105.1251 125.6022  1.00268037   992
METEOR-M2 4             
1 59051U 24039A   24181.51667986  .00000108  00000+0  68138-4 0  9990
2 59051  98.5980 143.1067 0008290  88.9066 271.3062 14.22235070 17240
PROGRESS-MS 27          
1 59913U 24103A   24180.67761657  .00019547  00000+0  35075-3 0  9995
2 59913  51.6386 258.3800 0011048  16.8141 343.3212 15.49852633  4490
